TISAT 1                 
1 36799U 10035E   26068.75703561  .00024554  00000+0  91005-3 0  9996
2 36799  98.0645   6.8512 0001343 159.3030 200.8262 15.27628633852505
STARLINK-35932          
1 66526U 25265L   26067.63899759  .00041123  00000+0  14946-2 0  9998
2 66526  42.9979 283.7947 0000323 336.7520  23.3317 15.27602763 16950
